{
  "type": "FeatureCollection",
  "features": [
    {
      "type": "Feature",
      "properties": {
        "norad_id": 30979,
        "name": "FENGYUN 1C DEB",
        "group": "fengyun-1c-debris",
        "lat": 28.277798842350244,
        "lon": 83.87690268447498,
        "alt_km": 530.0405044159861,
        "timestamp": "2025-12-27T13:34:49.575037+00:00",
        "meta_object_name": "FENGYUN 1C DEB",
        "meta_object_id": "1999-025BBV",
        "meta_epoch": "2025-12-26T11:43:30.103104",
        "meta_mean_motion": 14.79005475,
        "meta_eccentricity": 0.0190335,
        "meta_inclination": 97.8297,
        "meta_ra_of_asc_node": 258.5824,
        "meta_arg_of_pericenter": 196.2555,
        "meta_mean_anomaly": 343.9227,
        "meta_ephemeris_type": 0,
        "meta_classification_type": "U",
        "meta_norad_cat_id": 30979,
        "meta_element_set_no": 999,
        "meta_rev_at_epoch": 99348,
        "meta_bstar": 0.00080785,
        "meta_mean_motion_dot": 8.057e-05,
        "meta_mean_motion_ddot": 0,
        "tle_line1": "1 30979U 99025BBV 25360.48854286  .00008057  00000+0  80785-3 0  9994",
        "tle_line2": "2 30979  97.8297 258.5824 0190335 196.2555 343.9227 14.79005475993485"
      },
      "geometry": {
        "type": "Point",
        "coordinates": [
          83.87690268447498,
          28.277798842350244
        ]
      }
    },
    {
      "type": "Feature",
      "properties": {
        "norad_id": 30982,
        "name": "FENGYUN 1C DEB",
        "group": "fengyun-1c-debris",
        "lat": -36.98228003843269,
        "lon": -2.285722740662196,
        "alt_km": 655.6167408083447,
        "timestamp": "2025-12-27T13:34:49.575047+00:00",
        "meta_object_name": "FENGYUN 1C DEB",
        "meta_object_id": "1999-025BBY",
        "meta_epoch": "2025-12-26T06:21:46.661760",
        "meta_mean_motion": 14.5099281,
        "meta_eccentricity": 0.01799,
        "meta_inclination": 98.2179,
        "meta_ra_of_asc_node": 350.195,
        "meta_arg_of_pericenter": 270.7358,
        "meta_mean_anomaly": 99.7782,
        "meta_ephemeris_type": 0,
        "meta_classification_type": "U",
        "meta_norad_cat_id": 30982,
        "meta_element_set_no": 999,
        "meta_rev_at_epoch": 71250,
        "meta_bstar": 0.00030803,
        "meta_mean_motion_dot": 1.447e-05,
        "meta_mean_motion_ddot": 0,
        "tle_line1": "1 30982U 99025BBY 25360.26512340  .00001447  00000+0  30803-3 0  9998",
        "tle_line2": "2 30982  98.2179 350.1950 0179900 270.7358  99.7782 14.50992810712507"
      },
      "geometry": {
        "type": "Point",
        "coordinates": [
          -2.285722740662196,
          -36.98228003843269
        ]
      }
    },
    {
      "type": "Feature",
      "properties": {
        "norad_id": 30984,
        "name": "FENGYUN 1C DEB",
        "group": "fengyun-1c-debris",
        "lat": 8.415329896720118,
        "lon": -141.13674000180532,
        "alt_km": 804.114924683644,
        "timestamp": "2025-12-27T13:34:49.575057+00:00",
        "meta_object_name": "FENGYUN 1C DEB",
        "meta_object_id": "1999-025BCA",
        "meta_epoch": "2025-12-26T20:13:49.097568",
        "meta_mean_motion": 14.5052169,
        "meta_eccentricity": 0.01265013,
        "meta_inclination": 98.2621,
        "meta_ra_of_asc_node": 36.9219,
        "meta_arg_of_pericenter": 324.67,
        "meta_mean_anomaly": 34.6159,
        "meta_ephemeris_type": 0,
        "meta_classification_type": "U",
        "meta_norad_cat_id": 30984,
        "meta_element_set_no": 999,
        "meta_rev_at_epoch": 95368,
        "meta_bstar": 0.00080931026,
        "meta_mean_motion_dot": 3.463e-05,
        "meta_mean_motion_ddot": 0,
        "tle_line1": "1 30984U 99025BCA 25360.84292937  .00003463  00000+0  80931-3 0  9998",
        "tle_line2": "2 30984  98.2621  36.9219 0126501 324.6700  34.6159 14.50521690953683"
      },
      "geometry": {
        "type": "Point",
        "coordinates": [
          -141.13674000180532,
          8.415329896720118
        ]
      }
    },
    {
      "type": "Feature",
      "properties": {
        "norad_id": 30988,
        "name": "FENGYUN 1C DEB",
        "group": "fengyun-1c-debris",
        "lat": -74.59035083445642,
        "lon": 98.01489957573294,
        "alt_km": 425.76507579658573,
        "timestamp": "2025-12-27T13:34:49.575067+00:00",
        "meta_object_name": "FENGYUN 1C DEB",
        "meta_object_id": "1999-025BCE",
        "meta_epoch": "2025-12-24T07:25:39.389952",
        "meta_mean_motion": 15.27554396,
        "meta_eccentricity": 0.01086712,
        "meta_inclination": 98.5426,
        "meta_ra_of_asc_node": 307.3357,
        "meta_arg_of_pericenter": 299.8521,
        "meta_mean_anomaly": 59.1949,
        "meta_ephemeris_type": 0,
        "meta_classification_type": "U",
        "meta_norad_cat_id": 30988,
        "meta_element_set_no": 999,
        "meta_rev_at_epoch": 99740,
        "meta_bstar": 0.0020069634,
        "meta_mean_motion_dot": 0.00064814,
        "meta_mean_motion_ddot": 0,
        "tle_line1": "1 30988U 99025BCE 25358.30948368  .00064814  00000+0  20070-2 0  9990",
        "tle_line2": "2 30988  98.5426 307.3357 0108671 299.8521  59.1949 15.27554396997404"
      },
      "geometry": {
        "type": "Point",
        "coordinates": [
          98.01489957573294,
          -74.59035083445642
        ]
      }
    },
    {
      "type": "Feature",
      "properties": {
        "norad_id": 30989,
        "name": "FENGYUN 1C DEB",
        "group": "fengyun-1c-debris",
        "lat": 50.97475166692961,
        "lon": -93.33560038218887,
        "alt_km": 818.4189295582864,
        "timestamp": "2025-12-27T13:34:49.575077+00:00",
        "meta_object_name": "FENGYUN 1C DEB",
        "meta_object_id": "1999-025BCF",
        "meta_epoch": "2025-12-27T04:29:39.778080",
        "meta_mean_motion": 14.14011264,
        "meta_eccentricity": 0.00896134,
        "meta_inclination": 99.052,
        "meta_ra_of_asc_node": 74.9379,
        "meta_arg_of_pericenter": 58.9767,
        "meta_mean_anomaly": 302.0167,
        "meta_ephemeris_type": 0,
        "meta_classification_type": "U",
        "meta_norad_cat_id": 30989,
        "meta_element_set_no": 999,
        "meta_rev_at_epoch": 96192,
        "meta_bstar": 0.0014585383,
        "meta_mean_motion_dot": 2.836e-05,
        "meta_mean_motion_ddot": 0,
        "tle_line1": "1 30989U 99025BCF 25361.18726595  .00002836  00000+0  14585-2 0  9997",
        "tle_line2": "2 30989  99.0520  74.9379 0089613  58.9767 302.0167 14.14011264961924"
      },
      "geometry": {
        "type": "Point",
        "coordinates": [
          -93.33560038218887,
          50.97475166692961
        ]
      }
    },
    {
      "type": "Feature",
      "properties": {
        "norad_id": 30993,
        "name": "FENGYUN 1C DEB",
        "group": "fengyun-1c-debris",
        "lat": 48.053901125125705,
        "lon": -75.6420416071321,
        "alt_km": 780.0817414999374,
        "timestamp": "2025-12-27T13:34:49.575104+00:00",
        "meta_object_name": "FENGYUN 1C DEB",
        "meta_object_id": "1999-025BCK",
        "meta_epoch": "2025-12-27T04:52:48.999360",
        "meta_mean_motion": 14.35567203,
        "meta_eccentricity": 0.0016324,
        "meta_inclination": 98.8452,
        "meta_ra_of_asc_node": 94.0085,
        "meta_arg_of_pericenter": 327.7119,
        "meta_mean_anomaly": 90.9522,
        "meta_ephemeris_type": 0,
        "meta_classification_type": "U",
        "meta_norad_cat_id": 30993,
        "meta_element_set_no": 999,
        "meta_rev_at_epoch": 97127,
        "meta_bstar": 0.0021339973,
        "meta_mean_motion_dot": 6.114e-05,
        "meta_mean_motion_ddot": 0,
        "tle_line1": "1 30993U 99025BCK 25361.20334490  .00006114  00000+0  21340-2 0  9994",
        "tle_line2": "2 30993  98.8452  94.0085 0016324 327.7119  90.9522 14.35567203971273"
      },
      "geometry": {
        "type": "Point",
        "coordinates": [
          -75.6420416071321,
          48.053901125125705
        ]
      }
    },
    {
      "type": "Feature",
      "properties": {
        "norad_id": 30994,
        "name": "FENGYUN 1C DEB",
        "group": "fengyun-1c-debris",
        "lat": -15.696907200885219,
        "lon": 12.028541783403151,
        "alt_km": 869.4949307770567,
        "timestamp": "2025-12-27T13:34:49.575115+00:00",
        "meta_object_name": "FENGYUN 1C DEB",
        "meta_object_id": "1999-025BCL",
        "meta_epoch": "2025-12-27T06:51:07.085952",
        "meta_mean_motion": 14.117793,
        "meta_eccentricity": 0.00184957,
        "meta_inclination": 98.6998,
        "meta_ra_of_asc_node": 9.2905,
        "meta_arg_of_pericenter": 134.368,
        "meta_mean_anomaly": 225.9011,
        "meta_ephemeris_type": 0,
        "meta_classification_type": "U",
        "meta_norad_cat_id": 30994,
        "meta_element_set_no": 999,
        "meta_rev_at_epoch": 96790,
        "meta_bstar": 0.00015610376,
        "meta_mean_motion_dot": 2.42e-06,
        "meta_mean_motion_ddot": 0,
        "tle_line1": "1 30994U 99025BCL 25361.28549868  .00000242  00000+0  15610-3 0  9990",
        "tle_line2": "2 30994  98.6998   9.2905 0018495 134.3680 225.9011 14.11779300967907"
      },
      "geometry": {
        "type": "Point",
        "coordinates": [
          12.028541783403151,
          -15.696907200885219
        ]
      }
    }
  ]
}